COMMENT,ORIGINATOR,NORAD_CAT_ID,OBJECT_NAME,OBJECT_TYPE,CLASSIFICATION_TYPE,INTLDES,EPOCH,EPOCH_MICROSECONDS,MEAN_MOTION,ECCENTRICITY,INCLINATION,RA_OF_ASC_NODE,ARG_OF_PERICENTER,MEAN_ANOMALY,EPHEMERIS_TYPE,ELEMENT_SET_NO,REV_AT_EPOCH,BSTAR,MEAN_MOTION_DOT,MEAN_MOTION_DDOT,FILE,TLE_LINE0,TLE_LINE1,TLE_LINE2,OBJECT_ID,OBJECT_NUMBER,SEMIMAJOR_AXIS,PERIOD,APOGEE,PERIGEE,DECAYED
"GENERATED VIA SPACETRACK.ORG API","18 SPCS","55097","SPACEBEE-160","PAYLOAD","U","23001CS","2023-11-09 09:41:06","656064","15.26968414","0.0012555","97.458","12.6897","209.128","150.926","0","999","4720","0.0014022","0.00037277","0","4080359","0 SPACEBEE-160","1 55097U 23001CS  23313.40354926  .00037277  00000-0  14022-2 0  9994","2 55097  97.4580  12.6897 0012555 209.1280 150.9260 15.26968414 47206","2023-001CS","55097","6863.018","94.305","493.500","476.266","0"
"GENERATED VIA SPACETRACK.ORG API","18 SPCS","55097","SPACEBEE-160","PAYLOAD","U","23001CS","2023-11-09 15:58:34","195584","15.26985244","0.0012558","97.458","12.9516","208.2669","151.7889","0","999","4724","0.0012799","0.00034022","0","4080838","0 SPACEBEE-160","1 55097U 23001CS  23313.66567356  .00034022  00000-0  12799-2 0  9999","2 55097  97.4580  12.9516 0012558 208.2669 151.7889 15.26985244 47241","2023-001CS","55097","6862.968","94.303","493.451","476.214","0"
"GENERATED VIA SPACETRACK.ORG API","18 SPCS","55097","SPACEBEE-160","PAYLOAD","U","23001CS","2023-11-10 10:50:55","271040","15.27038104","0.0012447","97.4575","13.7361","206.0124","154.049","0","999","4736","0.0012992","0.00034593","0","4082666","0 SPACEBEE-160","1 55097U 23001CS  23314.45202860  .00034593  00000-0  12992-2 0  9991","2 55097  97.4575  13.7361 0012447 206.0124 154.0490 15.27038104 47363","2023-001CS","55097","6862.809","94.300","493.216","476.132","0"
"GENERATED VIA SPACETRACK.ORG API","18 SPCS","55097","SPACEBEE-160","PAYLOAD","U","23001CS","2023-11-10 10:50:55","271040","15.27038104","0.0012447","97.4575","13.7361","206.0124","154.049","0","999","4736","0.0012992","0.00034593","0","4082691","0 SPACEBEE-160","1 55097U 23001CS  23314.45202860  .00034593  00000-0  12992-2 0  9991","2 55097  97.4575  13.7361 0012447 206.0124 154.0490 15.27038104 47363","2023-001CS","55097","6862.809","94.300","493.216","476.132","0"
"GENERATED VIA SPACETRACK.ORG API","18 SPCS","55097","SPACEBEE-160","PAYLOAD","U","23001CS","2023-11-11 04:08:52","530144","15.27082455","0.0012604","97.4579","14.4575","202.6214","157.447","0","999","4747","0.0011153","0.00029708","0","4083845","0 SPACEBEE-160","1 55097U 23001CS  23315.17283021  .00029708  00000-0  11153-2 0  9999","2 55097  97.4579  14.4575 0012604 202.6214 157.4470 15.27082455 47474","2023-001CS","55097","6862.676","94.297","493.191","475.892","0"
"GENERATED VIA SPACETRACK.ORG API","18 SPCS","55097","SPACEBEE-160","PAYLOAD","U","23001CS","2023-11-11 04:08:52","530144","15.27082455","0.0012604","97.4579","14.4575","202.6214","157.447","0","999","4747","0.0011153","0.00029708","0","4084440","0 SPACEBEE-160","1 55097U 23001CS  23315.17283021  .00029708  00000-0  11153-2 0  9999","2 55097  97.4579  14.4575 0012604 202.6214 157.4470 15.27082455 47474","2023-001CS","55097","6862.676","94.297","493.191","475.892","0"
"GENERATED VIA SPACETRACK.ORG API","18 SPCS","55097","SPACEBEE-160","PAYLOAD","U","23001CS","2023-11-12 03:44:13","437312","15.27134365","0.0012669","97.4574","15.4394","198.8611","161.216","0","999","4762","0.00098308","0.00026207","0","4085556","0 SPACEBEE-160","1 55097U 23001CS  23316.15571108  .00026207  00000-0  98308-3 0  9993","2 55097  97.4574  15.4394 0012669 198.8611 161.2160 15.27134365 47621","2023-001CS","55097","6862.521","94.294","493.080","475.692","0"
"GENERATED VIA SPACETRACK.ORG API","18 SPCS","55097","SPACEBEE-160","PAYLOAD","U","23001CS","2023-11-12 16:19:03","436032","15.27167038","0.0012747","97.4571","15.963","197.1036","162.9774","0","999","4770","0.0012566","0.00033586","0","4086087","0 SPACEBEE-160","1 55097U 23001CS  23316.67990088  .00033586  00000-0  12566-2 0  9991","2 55097  97.4571  15.9630 0012747 197.1036 162.9774 15.27167038 47707","2023-001CS","55097","6862.423","94.292","493.035","475.540","0"
"GENERATED VIA SPACETRACK.ORG API","18 SPCS","55097","SPACEBEE-160","PAYLOAD","U","23001CS","2023-11-12 16:19:03","436032","15.27167038","0.0012747","97.4571","15.963","197.1036","162.9774","0","999","4770","0.0012566","0.00033586","0","4086163","0 SPACEBEE-160","1 55097U 23001CS  23316.67990088  .00033586  00000-0  12566-2 0  9991","2 55097  97.4571  15.9630 0012747 197.1036 162.9774 15.27167038 47707","2023-001CS","55097","6862.423","94.292","493.035","475.540","0"
"GENERATED VIA SPACETRACK.ORG API","18 SPCS","55097","SPACEBEE-160","PAYLOAD","U","23001CS","2023-11-13 09:36:55","654560","15.27209776","0.0012768","97.4567","16.6832","194.711","165.3759","0","999","4781","0.001308","0.00035015","0","4087425","0 SPACEBEE-160","1 55097U 23001CS  23317.40064415  .00035015  00000-0  13080-2 0  9990","2 55097  97.4567  16.6832 0012768 194.7110 165.3759 15.27209776 47811","2023-001CS","55097","6862.295","94.290","492.922","475.398","0"
"GENERATED VIA SPACETRACK.ORG API","18 SPCS","55097","SPACEBEE-160","PAYLOAD","U","23001CS","2023-11-14 02:54:46","185696","15.27248104","0.0012756","97.4566","17.4036","191.9895","168.1042","0","999","4792","0.001081","0.00028936","0","4088475","0 SPACEBEE-160","1 55097U 23001CS  23318.12136789  .00028936  00000-0  10810-2 0  9996","2 55097  97.4566  17.4036 0012756 191.9895 168.1042 15.27248104 47927","2023-001CS","55097","6862.180","94.287","492.798","475.292","0"
"GENERATED VIA SPACETRACK.ORG API","18 SPCS","55097","SPACEBEE-160","PAYLOAD","U","23001CS","2023-11-14 02:54:46","185696","15.27248104","0.0012756","97.4566","17.4036","191.9895","168.1042","0","999","4792","0.001081","0.00028936","0","4089264","0 SPACEBEE-160","1 55097U 23001CS  23318.12136789  .00028936  00000-0  10810-2 0  9996","2 55097  97.4566  17.4036 0012756 191.9895 168.1042 15.27248104 47927","2023-001CS","55097","6862.180","94.287","492.798","475.292","0"
"GENERATED VIA SPACETRACK.ORG API","18 SPCS","55097","SPACEBEE-160","PAYLOAD","U","23001CS","2023-11-14 21:46:55","773408","15.27289826","0.0012818","97.4563","18.1892","188.884","171.2174","0","999","4804","0.0009978","0.0002673","0","4089734","0 SPACEBEE-160","1 55097U 23001CS  23318.90758997  .00026730  00000-0  99780-3 0  9997","2 55097  97.4563  18.1892 0012818 188.8840 171.2174 15.27289826 48047","2023-001CS","55097","6862.055","94.285","492.716","475.124","0"
"GENERATED VIA SPACETRACK.ORG API","18 SPCS","55097","SPACEBEE-160","PAYLOAD","U","23001CS","2023-11-15 02:29:57","867072","15.27301603","0.0012803","97.4563","18.3856","188.3141","171.7888","0","999","4807","0.0010082","0.0002702","0","4090840","0 SPACEBEE-160","1 55097U 23001CS  23319.10414198  .00027020  00000-0  10082-2 0  9992","2 55097  97.4563  18.3856 0012803 188.3141 171.7888 15.27301603 48070","2023-001CS","55097","6862.020","94.284","492.670","475.099","0"
"GENERATED VIA SPACETRACK.ORG API","18 SPCS","55097","SPACEBEE-160","PAYLOAD","U","23001CS","2023-11-16 03:39:27","210528","15.27354568","0.0012879","97.4558","19.433","184.6429","175.4692","0","999","4823","0.00098616","0.00026469","0","4091795","0 SPACEBEE-160","1 55097U 23001CS  23320.15239827  .00026469  00000-0  98616-3 0  9999","2 55097  97.4558  19.4330 0012879 184.6429 175.4692 15.27354568 48234","2023-001CS","55097","6861.861","94.281","492.564","474.889","0"
"GENERATED VIA SPACETRACK.ORG API","18 SPCS","55097","SPACEBEE-160","PAYLOAD","U","23001CS","2023-11-16 03:39:27","210528","15.27354568","0.0012879","97.4558","19.433","184.6429","175.4692","0","999","4823","0.00098616","0.00026469","0","4092274","0 SPACEBEE-160","1 55097U 23001CS  23320.15239827  .00026469  00000-0  98616-3 0  9999","2 55097  97.4558  19.4330 0012879 184.6429 175.4692 15.27354568 48234","2023-001CS","55097","6861.861","94.281","492.564","474.889","0"
"GENERATED VIA SPACETRACK.ORG API","18 SPCS","55097","SPACEBEE-160","PAYLOAD","U","23001CS","2023-11-18 02:49:37","238304","15.27434579","0.0013012","97.4555","21.3968","177.8043","182.3255","0","999","4853","0.00075171","0.00020192","0","4094883","0 SPACEBEE-160","1 55097U 23001CS  23322.11779211  .00020192  00000-0  75171-3 0  9991","2 55097  97.4555  21.3968 0013012 177.8043 182.3255 15.27434579 48532","2023-001CS","55097","6861.622","94.276","492.415","474.558","0"
"GENERATED VIA SPACETRACK.ORG API","18 SPCS","55097","SPACEBEE-160","PAYLOAD","U","23001CS","2023-11-18 10:41:18","76704","15.27444769","0.0013076","97.4559","21.7245","176.6599","183.473","0","999","4858","0.00065063","0.00017466","0","4095448","0 SPACEBEE-160","1 55097U 23001CS  23322.44534811  .00017466  00000-0  65063-3 0  9991","2 55097  97.4559  21.7245 0013076 176.6599 183.4730 15.27444769 48588","2023-001CS","55097","6861.591","94.275","492.428","474.484","0"
"GENERATED VIA SPACETRACK.ORG API","18 SPCS","55097","SPACEBEE-160","PAYLOAD","U","23001CS","2023-11-18 20:07:18","843456","15.27459343","0.0013116","97.4558","22.1172","175.0987","185.0382","0","999","4864","0.0007187","0.00019315","0","4095863","0 SPACEBEE-160","1 55097U 23001CS  23322.83841254  .00019315  00000-0  71870-3 0  9994","2 55097  97.4558  22.1172 0013116 175.0987 185.0382 15.27459343 48642","2023-001CS","55097","6861.547","94.274","492.412","474.413","0"
"GENERATED VIA SPACETRACK.ORG API","18 SPCS","55097","SPACEBEE-160","PAYLOAD","U","23001CS","2023-11-19 02:24:39","131424","15.27468702","0.0013101","97.4558","22.3792","174.1899","185.9494","0","999","4868","0.0006526","0.00017532","0","4096886","0 SPACEBEE-160","1 55097U 23001CS  23323.10045291  .00017532  00000-0  65260-3 0  9997","2 55097  97.4558  22.3792 0013101 174.1899 185.9494 15.27468702 48684","2023-001CS","55097","6861.519","94.274","492.374","474.395","0"
